BEIDOU 1C               
1 27813U 03021A   10088.72480473 -.00000369  00000-0  10000-3 0   319
2 27813   0.1320 216.4160 0002349 311.5662  30.4788  1.00273120 25116
AMC-9 (GE-12)           
1 27820U 03024A   10088.51453227 -.00000233  00000-0  10000-3 0   910
2 27820   0.0280 118.6947 0004083 228.2114 302.1114  1.00270106 24962
THURAYA-2               
1 27825U 03026A   10088.65124201  .00000114  00000-0  10000-3 0  7474
2 27825   2.8046 351.7286 0005002   7.4695 106.2014  1.00273538 24960
BSAT-2C                 
1 27830U 03028A   10088.61899096 -.00000367  00000-0  10000-3 0  1148
2 27830   0.0187 150.3181 0002136 278.3727  90.9140  1.00270957 24937
OPTUS C1                
1 27831U 03028B   10088.07975954 -.00000165  00000-0  10000-3 0  2683
2 27831   0.0149 214.0748 0002368 147.2957   9.6971  1.00270825 24921
ECHOSTAR 12 (RAINBOW 1) 
1 27852U 03033A   10088.33062457 -.00000300  00000-0  00000+0 0  1142
2 27852   0.0303  66.5935 0001548 283.4949 254.2008  1.00270379 24582
GALAXY 23 (G-23)        
1 27854U 03034A   10086.41916793 -.00000005  00000-0  00000+0 0  1369
2 27854   0.0163 251.6608 0002955 120.3393 202.6281  1.00273797 24348
EUROBIRD 3              
1 27948U 03043A   10088.78730049  .00000139  00000-0  10000-3 0  1893
2 27948   0.0643   5.0245 0000886  39.1919  99.3997  1.00273628 23937
INSAT-3E                
1 27951U 03043E   10083.57981499  .00000072  00000-0  00000-0 0   583
2 27951   0.0086 234.7305 0004801 138.8857  72.0827  1.00272603 23784
GALAXY 13 (HORIZONS-1)  
1 27954U 03044A   10087.61376954  .00000030  00000-0  10000-3 0   173
2 27954   0.0033  73.9401 0002749   7.3330 198.5659  1.00270048 23838
ZHONGXING-20            
1 28082U 03052A   10088.57876175 -.00000309  00000-0  10000-3 0  9800
2 28082   0.0204 105.7415 0005168 279.2207 108.3307  1.00271881 23386
YAMAL 202               
1 28089U 03053A   10087.92159444  .00000102  00000-0  10000-3 0  8741
2 28089   0.0343 264.9818 0002608  94.5632 207.3830  1.00272586 23292
YAMAL 201               
1 28094U 03053B   10088.75971622 -.00000247  00000-0  10000-3 0  2812
2 28094   0.0469 268.7553 0002825 150.6899 131.0598  1.00276102 25479
AMOS 2                  
1 28132U 03059A   10088.09737840 -.00000052  00000-0  10000-3 0  9013
2 28132   0.0424 251.5928 0002961 107.2978 218.5108  1.00271476 22986
EXPRESS-AM 22           
1 28134U 03060A   10088.77500037  .00000081  00000-0  10000-3 0  9738
2 28134   0.0426 313.1185 0001721 115.8664  90.0621  1.00273295 22917
ESTRELA DO SUL          
1 28137U 04001A   10087.36039828 -.00000298  00000-0  10000-3 0  8602
2 28137   0.0164 128.2657 0004151 263.6123 220.4983  1.00268916 22970
AMC-10 (GE-10)          
1 28154U 04003A   10088.53283980  .00000071  00000-0  10000-3 0  2122
2 28154   0.0318 115.8169 0002584 246.3638 241.4351  1.00272997 22535
MBSAT                   
1 28184U 04007A   10088.66333568 -.00000267  00000-0  10000-3 0  9519
2 28184   0.0131 248.6714 0001827 106.2373 214.8884  1.00271494 22223
EUTELSAT W3A            
1 28187U 04008A   10086.84813250  .00000030  00000-0  10000-3 0  9182
2 28187   0.0633 351.1845 0003490  13.8642 132.4079  1.00272481 22169
RADUGA-1 7              
1 28194U 04010A   10088.11808167 -.00000352  00000-0  10000-3 0  2132
2 28194   4.5277  79.7563 0006442  52.1832 201.1433  1.00387976 21991
DIRECTV 7S              
1 28238U 04016A   10088.51074564 -.00000016  00000-0  10000-3 0   525
2 28238   0.0161 131.1334 0002633 237.4246 243.0170  1.00271958 21688
AMC-11 (GE-11)          
1 28252U 04017A   10088.56508230  .00000052  00000-0  10000-3 0  8942
2 28252   0.0425  38.9757 0002821 332.6414 247.6417  1.00272573 21479
INTELSAT 10-02          
1 28358U 04022A   10088.09744970 -.00000028  00000-0  10000-3 0  8300
2 28358   0.0125 164.5063 0000880 136.4342 279.5661  1.00272515 21226
APSTAR 5 (TELSTAR 18)   
1 28364U 04024A   10088.06534940 -.00000312  00000-0  10000-3 0  7125
2 28364   0.0211 123.3640 0002350 222.2857   2.2173  1.00270771 21201
ANIK F2                 
1 28378U 04027A   10088.22025368 -.00000067  00000-0  10000-3 0  9073
2 28378   0.0090 106.4163 0001814 220.6199 187.6662  1.00272568 20956
AMAZONAS                
1 28393U 04031A   10088.33062444 -.00000300  00000-0  00000+0 0  7469
2 28393   0.0497  26.1348 0005157 356.5688 221.9222  1.00273223 20721
EDUSAT                  
1 28417U 04036A   10088.72243139 -.00000093  00000-0  10000-3 0   902
2 28417   0.9689  79.3809 0006273 221.4452 220.2401  1.00271666 20282
AMC-15                  
1 28446U 04041A   10088.37379047 -.00000106  00000-0  10000-3 0   195
2 28446   0.0051 183.4293 0002201 163.5591 229.1747  1.00271550 20002
FENGYUN 2C              
1 28451U 04042A   10088.07043225 -.00000373  00000-0  10000-3 0  8234
2 28451   2.0946  74.5899 0001520 323.6236 297.0562  1.00270397 19907
EXPRESS-AM 1            
1 28463U 04043A   10088.80132934  .00000133  00000-0  10000-3 0  6933
2 28463   0.0506 308.0582 0001909 137.0199  70.4678  1.00272705 19827
AMC-16                  
1 28472U 04048A   10088.08372067 -.00000224  00000-0  00000+0 0   112
2 28472   0.0149 134.8824 0002141 215.4544 141.1729  1.00271904 19416
NSS-10 (AMC-12)         
1 28526U 05003A   10088.79409880 -.00000268  00000-0  10000-3 0  5721
2 28526   0.0105 299.1962 0002483  74.3307  62.0005  1.00268867 18921
XTAR-EUR                
1 28542U 05005A   10088.78647067  .00000134  00000-0  10000-3 0  6172
2 28542   0.0190 118.9942 0001548 247.1407 133.0519  1.00273440 18787
HIMAWARI-6 (MTSAT-1R)   
1 28622U 05006A   10087.60292804 -.00000298  00000-0  10000-3 0  3479
2 28622   0.0546  19.8874 0001711 122.6948  40.4224  1.00271894 18609
XM-3 (RHYTHM)           
1 28626U 05008A   10088.08372115 -.00000223  00000-0  00000+0 0  7031
2 28626   0.0033 170.9938 0000562 254.4329  65.9807  1.00270856 18666
INMARSAT 4-F1           
1 28628U 05009A   10088.67505581 -.00000279  00000-0  10000-3 0  2710
2 28628   2.3535 329.6917 0002976  35.7118 208.0526  1.00271531 18284
EXPRESS-AM 2            
1 28629U 05010A   10087.59784391 -.00000154  00000-0  10000-3 0  3387
2 28629   0.0439 348.4017 0001031  17.6907 115.0265  1.00271569 18300
APSTAR 6                
1 28638U 05012A   10089.39362894 -.00000334  00000-0  10000-3 0  6483
2 28638   0.0321 105.7767 0001767 277.3996  80.1852  1.00272664 43034
SPACEWAY 1              
1 28644U 05015A   10088.55187458 -.00000119  00000-0  10000-3 0  8440
2 28644   0.0318  16.4057 0000135 105.8945 160.2632  1.00271394 18110
DIRECTV 8               
1 28659U 05019A   10088.55437734 -.00000133  00000-0  00000+0 0  9368
2 28659   0.0084 268.8993 0002459  98.0397 278.5985  1.00271343 17783
GALAXY 28 (G-28)        
1 28702U 05022A   10088.48575082 -.00000202  00000-0  10000-3 0  7946
2 28702   0.0296 103.1412 0000928 253.7839 275.6936  1.00270817 17491
EXPRESS-AM 3            
1 28707U 05023A   10087.60890360 -.00000297  00000-0  10000-3 0  1964
2 28707   0.0554 170.4163 0003056 205.6325 169.1617  1.00271243 17457
THAICOM 4               
1 28786U 05028A   10087.63386100 -.00000380  00000-0  10000-3 0  6745
2 28786   0.0029 172.8897 0002307 203.9464 156.7819  1.00269629 16993
GALAXY 14 (G-14)        
1 28790U 05030A   10088.44629058  .00000019  00000-0  10000-3 0  8857
2 28790   0.0469  51.9094 0002544 312.1712 218.3084  1.00272354 16914
ANIK F1R                
1 28868U 05036A   10088.77280101 -.00000091  00000-0  00000+0 0  7661
2 28868   0.0129 158.1984 0001871 249.2861 310.4506  1.00272995 16754
GALAXY 15 (G-15)        
1 28884U 05041A   10088.55674175  .00000062  00000-0  10000-3 0  7931
2 28884   0.0393  65.5139 0002558 302.0032 246.7340  1.00272865 16347
SYRACUSE 3A             
1 28885U 05041B   10085.03824009  .00000113  00000-0  10000-3 0  7460
2 28885   0.0026 168.5093 0002761 199.4912 236.1064  1.00272028 16409
INMARSAT 4-F2           
1 28899U 05044A   10088.77562524  .00000118  00000-0  10000-3 0  1259
2 28899   2.2182 321.3923 0003069  55.9990 113.9510  1.00272417 16125
TELKOM 2                
1 28902U 05046A   10088.69825010 -.00000380  00000-0  10000-3 0  7741
2 28902   0.0121 180.3039 0001546 186.4751 189.5508  1.00268649 16019
SPACEWAY 2              
1 28903U 05046B   10088.73570817 -.00000143  00000-0  10000-3 0  7487
2 28903   0.0307  21.6718 0000152 216.0084 115.0554  1.00271273 16098
INSAT-4A                
1 28911U 05049A   10088.81180521 -.00000182  00000-0  10000-3 0   641
2 28911   0.0068 131.1222 0006436 291.8547 139.3196  1.00273071 15698
METEOSAT-9 (MSG-2)      
1 28912U 05049B   10088.05310370 -.00000017  00000-0  00000+0 0  6373
2 28912   0.2523  77.8870 0001230 283.5556 204.3662  1.00280669 15701
AMC-23                  
1 28924U 05052A   10086.59983208 -.00000023  00000-0  10000-3 0  7411
2 28924   0.0103 183.3971 0002925 171.4831 217.9835  1.00273620 15569
ECHOSTAR 10             
1 28935U 06003A   10088.46866248 -.00000073  00000-0  10000-3 0  8700
2 28935   0.0416  39.3606 0001083 312.0602 253.8426  1.00272375 15118
MTSAT-2                 
1 28937U 06004A   10088.66000662 -.00000260  00000-0  10000-3 0  7252
2 28937   0.0590 278.5059 0003700  85.0896 205.9736  1.00270170 15092
SPAINSAT                
1 28945U 06007A   10088.80763361 -.00000233  00000-0  00000+0 0  4502
2 28945   0.0257 224.0640 0002168 102.7640 120.9927  1.00269932 14860
EUROBIRD 9A             
1 28946U 06007B   10088.09769527  .00000044  00000-0  10000-3 0  4430
2 28946   0.0019 284.4557 0003747  88.1089 217.9698  1.00273311 14905
JCSAT-5A                
1 29045U 06010A   10088.72912142 -.00000345  00000-0  10000-3 0  5973
2 29045   0.0078 262.0219 0001700  99.4174 220.0914  1.00271482 14559
ASTRA 1KR               
1 29055U 06012A   10085.00000000  .00000104  00000-0  00000+0 0  3374
2 29055   0.0820 213.8480 0002322  98.2970 250.3750  1.00273803 14431
GALAXY 16 (G-16)        
1 29236U 06023A   10088.74076146 -.00000144  00000-0  10000-3 0  6929
2 29236   0.0146 159.9190 0002979 203.2337 351.5282  1.00271665 13868
